IRIDIUM 159             
1 43578U 18061K   25114.38581636  .00000134  00000+0  40809-4 0  9998
2 43578  86.3988 231.6606 0002315  91.0616 269.0845 14.34217747353352
IRIDIUM 180             
1 43922U 19002A   25115.22253405  .00000068  00000+0  17159-4 0  9999
2 43922  86.4009 168.2974 0002220  90.9771 269.1679 14.34218170329123
IRIDIUM 176             
1 43923U 19002B   25114.74979348  .00001611  00000+0  25160-3 0  9992
2 43923  86.6137 168.4929 0001869  88.4561 271.6870 14.72259449337684
IRIDIUM 168             
1 43924U 19002C   25115.21619056  .00000115  00000+0  34108-4 0  9994
2 43924  86.4012 168.3655 0002390  95.6251 264.5218 14.34218170329060
IRIDIUM 173             
1 43925U 19002D   25115.20350571  .00000166  00000+0  52266-4 0  9999
2 43925  86.4010 168.2771 0002079  91.9588 268.1846 14.34218723329053
IRIDIUM 169             
1 43926U 19002E   25114.80472520  .00000489  00000+0  15337-3 0  9999
2 43926  86.4288 200.0073 0001078 131.4389 228.6902 14.38608595330070
IRIDIUM 172             
1 43927U 19002F   25114.56924782  .00000129  00000+0  39029-4 0  9991
2 43927  86.4012 168.5481 0002438  88.4891 271.6584 14.34217965328969
IRIDIUM 175             
1 43928U 19002G   25115.08448854  .00000567  00000+0  85940-4 0  9990
2 43928  86.1473 123.9010 0002392 114.6009 245.5456 14.72246309337721
